YAM-7                   
1 60504U 24149AN  26068.71799904  .00009009  00000+0  30984-3 0  9997
2 60504  97.3828 149.4631 0001973 296.5121  63.5918 15.30304554 86835
STARLINK-35511          
1 66344U 25253AB  26068.45995577  .00032209  00000+0  11745-2 0  9998
2 66344  43.0017 213.4255 0001451 243.6652 116.4050 15.27591717 20218
